{
  "type": "FeatureCollection",
  "generator": "overpass-turbo",
  "copyright": "The data included in this document is from www.openstreetmap.org. The data is made available under ODbL.",
  "timestamp": "2026-01-02T09:59:00Z",
  "features": [
    {
      "type": "Feature",
      "properties": {
        "@id": "relation/18493626",
        "admin_level": "6",
        "border_type": "district",
        "boundary": "administrative",
        "name": "Rumbai",
        "name:en": "Rumbai District",
        "name:id": "Rumbai",
        "name:ms": "Kecamatan Rumbai",
        "name:ms-Arab": "کچامتن رومبي",
        "name:nl": "District Rumbai",
        "official_name": "Kecamatan Rumbai",
        "old_name": "Rumbai Pesisir",
        "ref": "14.71.12",
        "short_name": "Rumbai",
        "source": "Peraturan Daerah Kota Pekanbaru 2/2020 Tentang Penataan Kecamatan",
        "type": "boundary",
        "wikidata": "Q6542874"
      },
      "geometry": {
        "type": "Polygon",
        "coordinates": [
          [
            [
              101.3704202,
              0.5833108
            ],
            [
              101.3699001,
              0.5851561
            ],
            [
              101.3719814,
              0.5854838
            ],
            [
              101.3713986,
              0.5870534
            ],
            [
              101.3709663,
              0.588334
            ],
            [
              101.3708742,
              0.5886728
            ],
            [
              101.3707778,
              0.5889982
            ],
            [
              101.3706639,
              0.5894201
            ],
            [
              101.3705623,
              0.589814
            ],
            [
              101.3703179,
              0.590791
            ],
            [
              101.369999,
              0.5918874
            ],
            [
              101.3698228,
              0.5924335
            ],
            [
              101.3698016,
              0.5925145
            ],
            [
              101.3697785,
              0.5926026
            ],
            [
              101.3694689,
              0.5937299
            ],
            [
              101.3689723,
              0.5952864
            ],
            [
              101.365706,
              0.5934731
            ],
            [
              101.3651626,
              0.5932057
            ],
            [
              101.364651,
              0.5929467
            ],
            [
              101.3624865,
              0.5917867
            ],
            [
              101.3615933,
              0.5912691
            ],
            [
              101.3593993,
              0.5900595
            ],
            [
              101.3580108,
              0.5930421
            ],
            [
              101.3579393,
              0.5931754
            ],
            [
              101.3577125,
              0.5936477
            ],
            [
              101.3576843,
              0.5937039
            ],
            [
              101.3576629,
              0.5937468
            ],
            [
              101.3566578,
              0.5959126
            ],
            [
              101.3558792,
              0.5975264
            ],
            [
              101.3558429,
              0.5976015
            ],
            [
              101.3542187,
              0.6009588
            ],
            [
              101.3535536,
              0.600675
            ],
            [
              101.35209,
              0.599927
            ],
            [
              101.3504882,
              0.5991384
            ],
            [
              101.3496339,
              0.5987261
            ],
            [
              101.3495863,
              0.5987031
            ],
            [
              101.3487719,
              0.5983309
            ],
            [
              101.3471844,
              0.5975644
            ],
            [
              101.3468925,
              0.5974128
            ],
            [
              101.3452719,
              0.5965748
            ],
            [
              101.3450669,
              0.5964838
            ],
            [
              101.3443572,
              0.5972808
            ],
            [
              101.343359,
              0.5983715
            ],
            [
              101.3426063,
              0.5991933
            ],
            [
              101.3425747,
              0.5992278
            ],
            [
              101.3422419,
              0.5996036
            ],
            [
              101.341182,
              0.6007559
            ],
            [
              101.3400051,
              0.6020745
            ],
            [
              101.3376787,
              0.6046817
            ],
            [
              101.3374481,
              0.6044429
            ],
            [
              101.3361171,
              0.6030935
            ],
            [
              101.3348908,
              0.6018796
            ],
            [
              101.3325573,
              0.5995516
            ],
            [
              101.329962,
              0.6013349
            ],
            [
              101.3299137,
              0.6012705
            ],
            [
              101.3298547,
              0.6011739
            ],
            [
              101.3298118,
              0.6011203
            ],
            [
              101.3297796,
              0.6010559
            ],
            [
              101.329726,
              0.6009862
            ],
            [
              101.3296616,
              0.600954
            ],
            [
              101.3295758,
              0.6009111
            ],
            [
              101.3294417,
              0.6009486
            ],
            [
              101.3292915,
              0.6009486
            ],
            [
              101.3292056,
              0.600895
            ],
            [
              101.3291734,
              0.6007984
            ],
            [
              101.3291627,
              0.6006697
            ],
            [
              101.3291252,
              0.6005571
            ],
            [
              101.3290983,
              0.6005034
            ],
            [
              101.3289696,
              0.6003318
            ],
            [
              101.3289267,
              0.6002245
            ],
            [
              101.3288623,
              0.6001172
            ],
            [
              101.3287765,
              0.6000421
            ],
            [
              101.3287121,
              0.5999777
            ],
            [
              101.3286531,
              0.5999992
            ],
            [
              101.3285941,
              0.6000528
            ],
            [
              101.3285404,
              0.6001279
            ],
            [
              101.328519,
              0.6001923
            ],
            [
              101.3284546,
              0.6002674
            ],
            [
              101.3283795,
              0.6002781
            ],
            [
              101.3283205,
              0.6001869
            ],
            [
              101.3282722,
              0.6000636
            ],
            [
              101.3282347,
              0.5999295
            ],
            [
              101.3281971,
              0.5998758
            ],
            [
              101.3281542,
              0.5998115
            ],
            [
              101.3280469,
              0.5997364
            ],
            [
              101.3279396,
              0.599672
            ],
            [
              101.3279128,
              0.5996023
            ],
            [
              101.3279182,
              0.5995164
            ],
            [
              101.3279504,
              0.5994306
            ],
            [
              101.3278967,
              0.5993662
            ],
            [
              101.3278323,
              0.599334
            ],
            [
              101.327725,
              0.5993662
            ],
            [
              101.3276017,
              0.599495
            ],
            [
              101.3275319,
              0.5995808
            ],
            [
              101.3274461,
              0.5996237
            ],
            [
              101.3272315,
              0.5996773
            ],
            [
              101.3270062,
              0.5997417
            ],
            [
              101.3268882,
              0.599849
            ],
            [
              101.3267648,
              0.5999026
            ],
            [
              101.3265771,
              0.5998919
            ],
            [
              101.3264483,
              0.5998329
            ],
            [
              101.3262016,
              0.599731
            ],
            [
              101.3260567,
              0.5996291
            ],
            [
              101.3260567,
              0.5994199
            ],
            [
              101.325987,
              0.599275
            ],
            [
              101.3259119,
              0.5991678
            ],
            [
              101.3257992,
              0.5991088
            ],
            [
              101.3256276,
              0.5990766
            ],
            [
              101.3254885,
              0.5990805
            ],
            [
              101.325264,
              0.5990778
            ],
            [
              101.3246593,
              0.5979222
            ],
            [
              101.3244401,
              0.5970859
            ],
            [
              101.3244684,
              0.5951843
            ],
            [
              101.3240065,
              0.593155
            ],
            [
              101.3240039,
              0.5919526
            ],
            [
              101.3242776,
              0.5915533
            ],
            [
              101.3248911,
              0.5915232
            ],
            [
              101.3254635,
              0.5920955
            ],
            [
              101.325988,
              0.5928506
            ],
            [
              101.3269224,
              0.5936288
            ],
            [
              101.3278108,
              0.5941027
            ],
            [
              101.3287841,
              0.5945404
            ],
            [
              101.329947,
              0.5952253
            ],
            [
              101.3304639,
              0.595283
            ],
            [
              101.3310091,
              0.5950959
            ],
            [
              101.3312253,
              0.5947544
            ],
            [
              101.3311643,
              0.5941765
            ],
            [
              101.3303701,
              0.5931276
            ],
            [
              101.3302404,
              0.5920672
            ],
            [
              101.3307627,
              0.5908161
            ],
            [
              101.3320836,
              0.5892761
            ],
            [
              101.3328837,
              0.5886695
            ],
            [
              101.3330616,
              0.5881727
            ],
            [
              101.3329056,
              0.5877587
            ],
            [
              101.3327223,
              0.5876438
            ],
            [
              101.3316319,
              0.5877962
            ],
            [
              101.3308906,
              0.5877561
            ],
            [
              101.3304624,
              0.5874053
            ],
            [
              101.3303895,
              0.5868996
            ],
            [
              101.3305921,
              0.5865073
            ],
            [
              101.3314992,
              0.5861845
            ],
            [
              101.331984,
              0.5855554
            ],
            [
              101.3320679,
              0.5847707
            ],
            [
              101.3318221,
              0.5841677
            ],
            [
              101.3312719,
              0.5835446
            ],
            [
              101.3307327,
              0.5831293
            ],
            [
              101.3304522,
              0.5830362
            ],
            [
              101.3302631,
              0.5829734
            ],
            [
              101.3295831,
              0.5831956
            ],
            [
              101.3292004,
              0.5836968
            ],
            [
              101.3288838,
              0.5847099
            ],
            [
              101.3284577,
              0.5850909
            ],
            [
              101.3279065,
              0.5852002
            ],
            [
              101.3274463,
              0.5850089
            ],
            [
              101.3270682,
              0.584412
            ],
            [
              101.3266217,
              0.5832639
            ],
            [
              101.3261427,
              0.5828303
            ],
            [
              101.3258517,
              0.5825669
            ],
            [
              101.3251729,
              0.5823482
            ],
            [
              101.3247856,
              0.5820611
            ],
            [
              101.3246763,
              0.5816192
            ],
            [
              101.3247818,
              0.5812384
            ],
            [
              101.325032,
              0.5809993
            ],
            [
              101.3258289,
              0.5805476
            ],
            [
              101.3266868,
              0.5802278
            ],
            [
              101.3277971,
              0.5801704
            ],
            [
              101.3288359,
              0.5797057
            ],
            [
              101.3300022,
              0.5786487
            ],
            [
              101.3307729,
              0.5784772
            ],
            [
              101.3315695,
              0.5786669
            ],
            [
              101.3317247,
              0.5791319
            ],
            [
              101.331697,
              0.5795189
            ],
            [
              101.3314203,
              0.5805765
            ],
            [
              101.3314328,
              0.5812456
            ],
            [
              101.3319977,
              0.5815919
            ],
            [
              101.3326903,
              0.5814643
            ],
            [
              101.3335194,
              0.5804802
            ],
            [
              101.3349956,
              0.5790952
            ],
            [
              101.3364626,
              0.5774459
            ],
            [
              101.3372645,
              0.5769265
            ],
            [
              101.3382805,
              0.5767397
            ],
            [
              101.3397748,
              0.5771133
            ],
            [
              101.3409594,
              0.5773958
            ],
            [
              101.3415745,
              0.5779061
            ],
            [
              101.3418068,
              0.5785485
            ],
            [
              101.3416519,
              0.5793048
            ],
            [
              101.3410687,
              0.5798059
            ],
            [
              101.3402168,
              0.5803071
            ],
            [
              101.3396336,
              0.5809221
            ],
            [
              101.3394969,
              0.5817969
            ],
            [
              101.3397293,
              0.582781
            ],
            [
              101.3403398,
              0.5834234
            ],
            [
              101.3410277,
              0.5836466
            ],
            [
              101.341866,
              0.5834872
            ],
            [
              101.3425529,
              0.5829251
            ],
            [
              101.3431417,
              0.5813641
            ],
            [
              101.3435863,
              0.5802477
            ],
            [
              101.3439846,
              0.5789995
            ],
            [
              101.344103,
              0.5778787
            ],
            [
              101.3439527,
              0.5768263
            ],
            [
              101.3436338,
              0.5759105
            ],
            [
              101.3435609,
              0.5749583
            ],
            [
              101.3437568,
              0.5734139
            ],
            [
              101.3435381,
              0.5718284
            ],
            [
              101.3435882,
              0.570908
            ],
            [
              101.3438752,
              0.5701062
            ],
            [
              101.3445313,
              0.5695321
            ],
            [
              101.3454516,
              0.5693727
            ],
            [
              101.3470007,
              0.5696688
            ],
            [
              101.3484677,
              0.569646
            ],
            [
              101.3496659,
              0.5699558
            ],
            [
              101.3502081,
              0.5703385
            ],
            [
              101.3509234,
              0.5706256
            ],
            [
              101.351871,
              0.5703704
            ],
            [
              101.3522537,
              0.5698101
            ],
            [
              101.3526051,
              0.568646
            ],
            [
              101.3534036,
              0.5681763
            ],
            [
              101.3541581,
              0.5676551
            ],
            [
              101.3546821,
              0.5668304
            ],
            [
              101.354714,
              0.5660195
            ],
            [
              101.3542812,
              0.5655866
            ],
            [
              101.3536834,
              0.5655484
            ],
            [
              101.3528551,
              0.5654955
            ],
            [
              101.3511421,
              0.565532
            ],
            [
              101.3505361,
              0.5650809
            ],
            [
              101.3504997,
              0.5643656
            ],
            [
              101.3509598,
              0.5632676
            ],
            [
              101.3514564,
              0.5625478
            ],
            [
              101.3521353,
              0.5620702
            ],
            [
              101.3529189,
              0.5622835
            ],
            [
              101.3535112,
              0.5629259
            ],
            [
              101.3544042,
              0.5636184
            ],
            [
              101.3554657,
              0.5644112
            ],
            [
              101.356468,
              0.5648713
            ],
            [
              101.3575888,
              0.5648759
            ],
            [
              101.3581765,
              0.5644932
            ],
            [
              101.3584297,
              0.5637611
            ],
            [
              101.3583542,
              0.5629123
            ],
            [
              101.3579897,
              0.5619464
            ],
            [
              101.357197,
              0.5609805
            ],
            [
              101.3568416,
              0.5600511
            ],
            [
              101.3570056,
              0.5593358
            ],
            [
              101.3577711,
              0.559026
            ],
            [
              101.3588463,
              0.5591034
            ],
            [
              101.359598,
              0.5593632
            ],
            [
              101.3607142,
              0.5598962
            ],
            [
              101.3613542,
              0.5601419
            ],
            [
              101.3619443,
              0.5601194
            ],
            [
              101.3637257,
              0.5597595
            ],
            [
              101.3647919,
              0.560083
            ],
            [
              101.3653939,
              0.5604009
            ],
            [
              101.3659673,
              0.5609213
            ],
            [
              101.3663776,
              0.5611484
            ],
            [
              101.3668466,
              0.5611856
            ],
            [
              101.3673668,
              0.5610409
            ],
            [
              101.3678398,
              0.5607254
            ],
            [
              101.3683546,
              0.5599554
            ],
            [
              101.3688285,
              0.5596274
            ],
            [
              101.3692431,
              0.5597139
            ],
            [
              101.3695277,
              0.5600429
            ],
            [
              101.3695346,
              0.560452
            ],
            [
              101.36931,
              0.5608859
            ],
            [
              101.3689651,
              0.5613496
            ],
            [
              101.3686645,
              0.5618462
            ],
            [
              101.3683262,
              0.5627749
            ],
            [
              101.3681405,
              0.5637141
            ],
            [
              101.3681314,
              0.5644386
            ],
            [
              101.3682103,
              0.5650375
            ],
            [
              101.3684138,
              0.5654135
            ],
            [
              101.3687045,
              0.5656613
            ],
            [
              101.3690653,
              0.5658554
            ],
            [
              101.3696391,
              0.5659307
            ],
            [
              101.3704367,
              0.5656459
            ],
            [
              101.371174,
              0.5651562
            ],
            [
              101.3719216,
              0.564476
            ],
            [
              101.3725685,
              0.5638551
            ],
            [
              101.3727042,
              0.5636124
            ],
            [
              101.3728034,
              0.5631975
            ],
            [
              101.3727705,
              0.5627091
            ],
            [
              101.3724708,
              0.5611308
            ],
            [
              101.3722386,
              0.5573867
            ],
            [
              101.3727094,
              0.5562928
            ],
            [
              101.373719,
              0.5553106
            ],
            [
              101.3743738,
              0.5549164
            ],
            [
              101.3749165,
              0.5541703
            ],
            [
              101.3750263,
              0.5540194
            ],
            [
              101.3755167,
              0.5530257
            ],
            [
              101.3759677,
              0.5525656
            ],
            [
              101.3767468,
              0.552479
            ],
            [
              101.3771113,
              0.5528845
            ],
            [
              101.3770692,
              0.5540309
            ],
            [
              101.3773482,
              0.5552855
            ],
            [
              101.377494,
              0.5562195
            ],
            [
              101.3778014,
              0.5573244
            ],
            [
              101.3787563,
              0.5582954
            ],
            [
              101.3796484,
              0.5583549
            ],
            [
              101.3806299,
              0.5581213
            ],
            [
              101.3811114,
              0.558203
            ],
            [
              101.3820956,
              0.5584802
            ],
            [
              101.3833697,
              0.5591751
            ],
            [
              101.3842923,
              0.5594728
            ],
            [
              101.3852235,
              0.5593937
            ],
            [
              101.3856805,
              0.5587635
            ],
            [
              101.3853036,
              0.5576328
            ],
            [
              101.384853,
              0.5565627
            ],
            [
              101.3839947,
              0.5551895
            ],
            [
              101.383308,
              0.5543312
            ],
            [
              101.3826376,
              0.5532705
            ],
            [
              101.3820569,
              0.5524135
            ],
            [
              101.3817956,
              0.5506795
            ],
            [
              101.3824497,
              0.54901
            ],
            [
              101.3835226,
              0.5482268
            ],
            [
              101.3847929,
              0.5475644
            ],
            [
              101.3854967,
              0.5476903
            ],
            [
              101.3863658,
              0.5485541
            ],
            [
              101.3883666,
              0.5504422
            ],
            [
              101.3903837,
              0.5517296
            ],
            [
              101.3910381,
              0.5525312
            ],
            [
              101.3912509,
              0.552979
            ],
            [
              101.3915619,
              0.5537248
            ],
            [
              101.3917934,
              0.5547466
            ],
            [
              101.3920819,
              0.555514
            ],
            [
              101.3921996,
              0.555928
            ],
            [
              101.3924352,
              0.5567571
            ],
            [
              101.3924361,
              0.5589678
            ],
            [
              101.3924361,
              0.5590023
            ],
            [
              101.3928409,
              0.5593725
            ],
            [
              101.393004,
              0.5594056
            ],
            [
              101.3931162,
              0.5594667
            ],
            [
              101.3936366,
              0.5595101
            ],
            [
              101.3938279,
              0.5594753
            ],
            [
              101.3939897,
              0.5594716
            ],
            [
              101.3943407,
              0.5594361
            ],
            [
              101.3948057,
              0.5592769
            ],
            [
              101.3950776,
              0.5591178
            ],
            [
              101.395332,
              0.5588792
            ],
            [
              101.3956039,
              0.5586406
            ],
            [
              101.3959109,
              0.5582783
            ],
            [
              101.3960512,
              0.5581016
            ],
            [
              101.3961564,
              0.5579072
            ],
            [
              101.3962353,
              0.5577128
            ],
            [
              101.3962879,
              0.5574566
            ],
            [
              101.3963272,
              0.5570724
            ],
            [
              101.3963096,
              0.5568427
            ],
            [
              101.396248,
              0.5566131
            ],
            [
              101.3962216,
              0.5564099
            ],
            [
              101.3961489,
              0.5562344
            ],
            [
              101.3961475,
              0.5562311
            ],
            [
              101.3961338,
              0.5561979
            ],
            [
              101.3960196,
              0.5559948
            ],
            [
              101.3958265,
              0.5558182
            ],
            [
              101.395532,
              0.555569
            ],
            [
              101.3954798,
              0.5555128
            ],
            [
              101.3947281,
              0.5547611
            ],
            [
              101.3939474,
              0.5538287
            ],
            [
              101.393539,
              0.5528966
            ],
            [
              101.393531,
              0.5527842
            ],
            [
              101.3935454,
              0.552606
            ],
            [
              101.3935922,
              0.5523362
            ],
            [
              101.3936225,
              0.5522239
            ],
            [
              101.3937037,
              0.5519722
            ],
            [
              101.3937053,
              0.5519674
            ],
            [
              101.3942836,
              0.5513819
            ],
            [
              101.3949377,
              0.5508
            ],
            [
              101.3950927,
              0.5504435
            ],
            [
              101.3952543,
              0.5501287
            ],
            [
              101.3954903,
              0.5495864
            ],
            [
              101.3955563,
              0.5494218
            ],
            [
              101.3962966,
              0.5485376
            ],
            [
              101.397258,
              0.5483424
            ],
            [
              101.398082,
              0.548993
            ],
            [
              101.3987362,
              0.5502254
            ],
            [
              101.3989504,
              0.5504754
            ],
            [
              101.3996469,
              0.5512879
            ],
            [
              101.3998527,
              0.5514567
            ],
            [
              101.4003377,
              0.5517018
            ],
            [
              101.4004779,
              0.5517819
            ],
            [
              101.4011749,
              0.5521728
            ],
            [
              101.4013924,
              0.5522649
            ],
            [
              101.4014478,
              0.5522884
            ],
            [
              101.4016249,
              0.5523317
            ],
            [
              101.4017829,
              0.5523412
            ],
            [
              101.4019169,
              0.5523364
            ],
            [
              101.4020701,
              0.5523218
            ],
            [
              101.4022376,
              0.5522832
            ],
            [
              101.402374,
              0.5522277
            ],
            [
              101.4023887,
              0.5522194
            ],
            [
              101.4025859,
              0.5521081
            ],
            [
              101.4025918,
              0.5521048
            ],
            [
              101.4027305,
              0.5519842
            ],
            [
              101.4027644,
              0.5519453
            ],
            [
              101.4028356,
              0.5518635
            ],
            [
              101.4030487,
              0.5516058
            ],
            [
              101.403264,
              0.5512588
            ],
            [
              101.4033883,
              0.5510226
            ],
            [
              101.4035175,
              0.5508298
            ],
            [
              101.4036562,
              0.5506707
            ],
            [
              101.403819,
              0.5505502
            ],
            [
              101.4039817,
              0.5504489
            ],
            [
              101.4042545,
              0.5503669
            ],
            [
              101.4046135,
              0.550333
            ],
            [
              101.4048431,
              0.5503439
            ],
            [
              101.4049151,
              0.5503474
            ],
            [
              101.4052166,
              0.5503615
            ],
            [
              101.405553,
              0.5503926
            ],
            [
              101.4056834,
              0.5504073
            ],
            [
              101.4058289,
              0.550418
            ],
            [
              101.4062962,
              0.5504693
            ],
            [
              101.4067887,
              0.550513
            ],
            [
              101.4070812,
              0.5505513
            ],
            [
              101.4074258,
              0.5505897
            ],
            [
              101.4077083,
              0.5506088
            ],
            [
              101.4080625,
              0.5506232
            ],
            [
              101.4085603,
              0.5506374
            ],
            [
              101.4088882,
              0.55063
            ],
            [
              101.4092089,
              0.5506251
            ],
            [
              101.4094578,
              0.5505816
            ],
            [
              101.4096828,
              0.5505093
            ],
            [
              101.4099604,
              0.5503935
            ],
            [
              101.4102188,
              0.550244
            ],
            [
              101.4103082,
              0.5501907
            ],
            [
              101.4105825,
              0.550027
            ],
            [
              101.4106071,
              0.5500123
            ],
            [
              101.4109726,
              0.5497931
            ],
            [
              101.4114238,
              0.5495133
            ],
            [
              101.4114703,
              0.5494845
            ],
            [
              101.4117717,
              0.5492724
            ],
            [
              101.4118978,
              0.5491917
            ],
            [
              101.4121259,
              0.5490457
            ],
            [
              101.4124178,
              0.5488818
            ],
            [
              101.4127002,
              0.5487612
            ],
            [
              101.4130161,
              0.5486695
            ],
            [
              101.4134565,
              0.5486645
            ],
            [
              101.4140213,
              0.5487173
            ],
            [
              101.4144186,
              0.5487605
            ],
            [
              101.4148164,
              0.5488231
            ],
            [
              101.4148614,
              0.5488302
            ],
            [
              101.4153402,
              0.5489505
            ],
            [
              101.4158811,
              0.5491093
            ],
            [
              101.4164604,
              0.5493403
            ],
            [
              101.4168578,
              0.5495763
            ],
            [
              101.4171377,
              0.5497968
            ],
            [
              101.4177135,
              0.5503535
            ],
            [
              101.4177437,
              0.5503855
            ],
            [
              101.4181292,
              0.5508263
            ],
            [
              101.4185267,
              0.5512646
            ],
            [
              101.4189265,
              0.5515608
            ],
            [
              101.4193239,
              0.5517968
            ],
            [
              101.4197021,
              0.551946
            ],
            [
              101.4200803,
              0.5520278
            ],
            [
              101.4205542,
              0.552095
            ],
            [
              101.4208298,
              0.5521079
            ],
            [
              101.4208606,
              0.5521094
            ],
            [
              101.4211717,
              0.5520996
            ],
            [
              101.4214685,
              0.5520706
            ],
            [
              101.4216585,
              0.5520365
            ],
            [
              101.4218179,
              0.5520078
            ],
            [
              101.4221769,
              0.5519016
            ],
            [
              101.4224162,
              0.5517666
            ],
            [
              101.4225267,
              0.5516755
            ],
            [
              101.4225741,
              0.5516364
            ],
            [
              101.4226247,
              0.5515665
            ],
            [
              101.4227032,
              0.5514581
            ],
            [
              101.4228228,
              0.5512026
            ],
            [
              101.4228395,
              0.5511298
            ],
            [
              101.4228802,
              0.550952
            ],
            [
              101.4228944,
              0.5507496
            ],
            [
              101.4228848,
              0.5505521
            ],
            [
              101.422844,
              0.5502027
            ],
            [
              101.4227361,
              0.5497088
            ],
            [
              101.422621,
              0.5492848
            ],
            [
              101.4225252,
              0.549015
            ],
            [
              101.4224628,
              0.5487934
            ],
            [
              101.4224101,
              0.5485476
            ],
            [
              101.4224003,
              0.5484656
            ],
            [
              101.4223957,
              0.5484272
            ],
            [
              101.4224004,
              0.5483067
            ],
            [
              101.422429,
              0.5480947
            ],
            [
              101.4224864,
              0.5479163
            ],
            [
              101.422649,
              0.547603
            ],
            [
              101.4229936,
              0.5472897
            ],
            [
              101.4230261,
              0.5472672
            ],
            [
              101.4230693,
              0.5472374
            ],
            [
              101.4233142,
              0.5470679
            ],
            [
              101.4240871,
              0.5466074
            ],
            [
              101.4246015,
              0.5463445
            ],
            [
              101.4252476,
              0.5460503
            ],
            [
              101.425798,
              0.5458525
            ],
            [
              101.4263819,
              0.5456885
            ],
            [
              101.4269561,
              0.5455531
            ],
            [
              101.4273852,
              0.5454726
            ],
            [
              101.4278705,
              0.5453746
            ],
            [
              101.4282972,
              0.5452956
            ],
            [
              101.4288658,
              0.5451561
            ],
            [
              101.429764,
              0.5451272
            ],
            [
              101.4301596,
              0.5451178
            ],
            [
              101.43152,
              0.5446812
            ],
            [
              101.4326932,
              0.5437918
            ],
            [
              101.433911,
              0.5424207
            ],
            [
              101.4364526,
              0.5414595
            ],
            [
              101.4366471,
              0.5414289
            ],
            [
              101.4371614,
              0.5413423
            ],
            [
              101.4372159,
              0.5413331
            ],
            [
              101.4376741,
              0.5412673
            ],
            [
              101.4392105,
              0.5410255
            ],
            [
              101.4403144,
              0.5409142
            ],
            [
              101.4412693,
              0.5408179
            ],
            [
              101.4429876,
              0.5405878
            ],
            [
              101.4442149,
              0.5401613
            ],
            [
              101.4452446,
              0.5397041
            ],
            [
              101.4454058,
              0.5396383
            ],
            [
              101.4467462,
              0.5391725
            ],
            [
              101.4472845,
              0.5391134
            ],
            [
              101.4475336,
              0.5391063
            ],
            [
              101.4480432,
              0.5394657
            ],
            [
              101.4508636,
              0.5423291
            ],
            [
              101.451199,
              0.5425176
            ],
            [
              101.4515343,
              0.5426068
            ],
            [
              101.4519287,
              0.5426563
            ],
            [
              101.4524612,
              0.5426064
            ],
            [
              101.4529344,
              0.5425169
            ],
            [
              101.453388,
              0.5424174
            ],
            [
              101.4535724,
              0.5423809
            ],
            [
              101.4545561,
              0.542266
            ],
            [
              101.4552023,
              0.5422281
            ],
            [
              101.4558827,
              0.5422377
            ],
            [
              101.4562726,
              0.5422648
            ],
            [
              101.4566509,
              0.5423086
            ],
            [
              101.4568627,
              0.5423614
            ],
            [
              101.457206,
              0.542533
            ],
            [
              101.4575708,
              0.5427959
            ],
            [
              101.4578873,
              0.5430909
            ],
            [
              101.4581233,
              0.5434289
            ],
            [
              101.458185,
              0.5437829
            ],
            [
              101.4582011,
              0.5440565
            ],
            [
              101.458177,
              0.5442389
            ],
            [
              101.4580825,
              0.5446674
            ],
            [
              101.4579797,
              0.5451936
            ],
            [
              101.4578964,
              0.5456204
            ],
            [
              101.4577547,
              0.546346
            ],
            [
              101.457561,
              0.5471408
            ],
            [
              101.4573,
              0.5478606
            ],
            [
              101.4569945,
              0.5483968
            ],
            [
              101.456551,
              0.5489826
            ],
            [
              101.4559793,
              0.5495983
            ],
            [
              101.4559028,
              0.5496787
            ],
            [
              101.4555062,
              0.5500948
            ],
            [
              101.4550232,
              0.550502
            ],
            [
              101.4546881,
              0.5507206
            ],
            [
              101.4544219,
              0.5508398
            ],
            [
              101.4542523,
              0.5508911
            ],
            [
              101.4540275,
              0.5509591
            ],
            [
              101.4537612,
              0.5509592
            ],
            [
              101.4535147,
              0.5509295
            ],
            [
              101.4532431,
              0.5508437
            ],
            [
              101.4531695,
              0.5508205
            ],
            [
              101.4529328,
              0.5506816
            ],
            [
              101.4525383,
              0.550374
            ],
            [
              101.4521141,
              0.5500367
            ],
            [
              101.4516505,
              0.5496001
            ],
            [
              101.4510982,
              0.5492727
            ],
            [
              101.4508122,
              0.5491736
            ],
            [
              101.4504868,
              0.5491539
            ],
            [
              101.4504074,
              0.5491674
            ],
            [
              101.449751,
              0.5493789
            ],
            [
              101.4488668,
              0.5497966
            ],
            [
              101.448169,
              0.5501314
            ],
            [
              101.4480462,
              0.5502024
            ],
            [
              101.4476819,
              0.5504207
            ],
            [
              101.4474256,
              0.5506491
            ],
            [
              101.4471891,
              0.550947
            ],
            [
              101.4470512,
              0.551364
            ],
            [
              101.4470415,
              0.5518206
            ],
            [
              101.4470676,
              0.5519593
            ],
            [
              101.4471403,
              0.5523467
            ],
            [
              101.4472348,
              0.5526316
            ],
            [
              101.4473909,
              0.5530222
            ],
            [
              101.4479263,
              0.5540636
            ],
            [
              101.4484479,
              0.5550781
            ],
            [
              101.4486749,
              0.5553886
            ],
            [
              101.4490991,
              0.5556664
            ],
            [
              101.4494917,
              0.5557848
            ],
            [
              101.4494935,
              0.5557853
            ],
            [
              101.4497499,
              0.5558349
            ],
            [
              101.4500556,
              0.5558546
            ],
            [
              101.4504402,
              0.5558445
            ],
            [
              101.4508346,
              0.5558543
            ],
            [
              101.4508438,
              0.5566381
            ],
            [
              101.4508438,
              0.5566741
            ],
            [
              101.4508793,
              0.5571342
            ],
            [
              101.4508831,
              0.5571834
            ],
            [
              101.4508784,
              0.5573111
            ],
            [
              101.4508757,
              0.5573854
            ],
            [
              101.4508541,
              0.5575426
            ],
            [
              101.4507992,
              0.5576888
            ],
            [
              101.4507325,
              0.5578209
            ],
            [
              101.4506496,
              0.5579997
            ],
            [
              101.4503087,
              0.558584
            ],
            [
              101.4497676,
              0.5596159
            ],
            [
              101.4497066,
              0.5597748
            ],
            [
              101.4495129,
              0.5604715
            ],
            [
              101.4494625,
              0.5611199
            ],
            [
              101.449441,
              0.5620264
            ],
            [
              101.4494021,
              0.5629464
            ],
            [
              101.4493753,
              0.5631757
            ],
            [
              101.449327,
              0.5634533
            ],
            [
              101.4488858,
              0.5651417
            ],
            [
              101.4482702,
              0.5673396
            ],
            [
              101.4477653,
              0.5691688
            ],
            [
              101.4475688,
              0.5698071
            ],
            [
              101.4474996,
              0.5699702
            ],
            [
              101.4474971,
              0.5699756
            ],
            [
              101.4474064,
              0.5701741
            ],
            [
              101.4473839,
              0.5702233
            ],
            [
              101.4473804,
              0.5702309
            ],
            [
              101.4475849,
              0.5703355
            ],
            [
              101.4478672,
              0.5704724
            ],
            [
              101.4477777,
              0.5707399
            ],
            [
              101.4477012,
              0.5709685
            ],
            [
              101.4476488,
              0.5711459
            ],
            [
              101.4476117,
              0.5712716
            ],
            [
              101.4473515,
              0.5717972
            ],
            [
              101.4472944,
              0.5719127
            ],
            [
              101.4469518,
              0.5725669
            ],
            [
              101.4472064,
              0.5726803
            ],
            [
              101.4472259,
              0.5726885
            ],
            [
              101.4474817,
              0.5727964
            ],
            [
              101.4475476,
              0.5728332
            ],
            [
              101.4478579,
              0.5729772
            ],
            [
              101.4481202,
              0.5731202
            ],
            [
              101.4481575,
              0.5731368
            ],
            [
              101.4484191,
              0.573259
            ],
            [
              101.4488827,
              0.5735742
            ],
            [
              101.4492635,
              0.5738664
            ],
            [
              101.4495859,
              0.5739027
            ],
            [
              101.4497817,
              0.5731973
            ],
            [
              101.4498188,
              0.5730626
            ],
            [
              101.4499373,
              0.5726329
            ],
            [
              101.4500257,
              0.5723122
            ],
            [
              101.4500626,
              0.5722054
            ],
            [
              101.4502685,
              0.5722197
            ],
            [
              101.4504348,
              0.5722331
            ],
            [
              101.4511924,
              0.5723291
            ],
            [
              101.4514983,
              0.5722693
            ],
            [
              101.4511959,
              0.5715076
            ],
            [
              101.4514656,
              0.5714248
            ],
            [
              101.452324,
              0.5711818
            ],
            [
              101.4524976,
              0.5711369
            ],
            [
              101.452539,
              0.5712286
            ],
            [
              101.4527041,
              0.5715879
            ],
            [
              101.4529898,
              0.5720723
            ],
            [
              101.4532767,
              0.5725588
            ],
            [
              101.4535195,
              0.5728968
            ],
            [
              101.4536943,
              0.5729995
            ],
            [
              101.4537581,
              0.5730544
            ],
            [
              101.4538049,
              0.5731462
            ],
            [
              101.4538762,
              0.57346
            ],
            [
              101.4539164,
              0.5736638
            ],
            [
              101.454021,
              0.5739964
            ],
            [
              101.4540572,
              0.5740616
            ],
            [
              101.4541266,
              0.5741926
            ],
            [
              101.4541671,
              0.5742513
            ],
            [
              101.4542773,
              0.57439
            ],
            [
              101.4544609,
              0.5746186
            ],
            [
              101.4548095,
              0.5750144
            ],
            [
              101.4548739,
              0.5750384
            ],
            [
              101.4549208,
              0.5750486
            ],
            [
              101.4549812,
              0.5750613
            ],
            [
              101.4550328,
              0.5750801
            ],
            [
              101.4552346,
              0.5752035
            ],
            [
              101.4553606,
              0.5753698
            ],
            [
              101.4555604,
              0.5756782
            ],
            [
              101.4559641,
              0.5761502
            ],
            [
              101.4553177,
              0.5769763
            ],
            [
              101.4562941,
              0.5780813
            ],
            [
              101.4549968,
              0.5793468
            ],
            [
              101.4544487,
              0.5799266
            ],
            [
              101.4541966,
              0.5805971
            ],
            [
              101.453923,
              0.5810102
            ],
            [
              101.4537299,
              0.5812623
            ],
            [
              101.4535636,
              0.5814178
            ],
            [
              101.4533758,
              0.5815466
            ],
            [
              101.4531827,
              0.5816217
            ],
            [
              101.4529091,
              0.5817129
            ],
            [
              101.4526409,
              0.5818094
            ],
            [
              101.4520884,
              0.5819757
            ],
            [
              101.4513802,
              0.582201
            ],
            [
              101.45099,
              0.5823217
            ],
            [
              101.4508733,
              0.5824102
            ],
            [
              101.4507996,
              0.5824451
            ],
            [
              101.4507057,
              0.5824746
            ],
            [
              101.4504334,
              0.5825188
            ],
            [
              101.4503489,
              0.5825349
            ],
            [
              101.4502899,
              0.5825711
            ],
            [
              101.4501826,
              0.5826905
            ],
            [
              101.4500727,
              0.5828326
            ],
            [
              101.4499077,
              0.5830217
            ],
            [
              101.4497951,
              0.5831478
            ],
            [
              101.4497213,
              0.5832175
            ],
            [
              101.4496261,
              0.5833006
            ],
            [
              101.4495215,
              0.5833784
            ],
            [
              101.4494397,
              0.5834227
            ],
            [
              101.4493632,
              0.5834508
            ],
            [
              101.4493082,
              0.5834643
            ],
            [
              101.4492479,
              0.5834643
            ],
            [
              101.4491902,
              0.5834535
            ],
            [
              101.4490937,
              0.583412
            ],
            [
              101.4490132,
              0.5833637
            ],
            [
              101.4489676,
              0.5833328
            ],
            [
              101.4489341,
              0.5833141
            ],
            [
              101.4488764,
              0.5832966
            ],
            [
              101.4487731,
              0.5832899
            ],
            [
              101.4487021,
              0.5832899
            ],
            [
              101.4485773,
              0.5833006
            ],
            [
              101.4484218,
              0.5833248
            ],
            [
              101.4479524,
              0.5833892
            ],
            [
              101.4478049,
              0.5833959
            ],
            [
              101.4477284,
              0.5834012
            ],
            [
              101.4476962,
              0.5834146
            ],
            [
              101.447656,
              0.5834388
            ],
            [
              101.4476187,
              0.58348
            ],
            [
              101.4475501,
              0.5835876
            ],
            [
              101.4475179,
              0.5837003
            ],
            [
              101.4474642,
              0.5838773
            ],
            [
              101.4473918,
              0.5841401
            ],
            [
              101.4473301,
              0.5843306
            ],
            [
              101.4476976,
              0.5845482
            ],
            [
              101.4480588,
              0.5851226
            ],
            [
              101.4500598,
              0.5902271
            ],
            [
              101.4500633,
              0.5906334
            ],
            [
              101.450184,
              0.5910196
            ],
            [
              101.4501974,
              0.5912476
            ],
            [
              101.4502805,
              0.595083
            ],
            [
              101.4502926,
              0.5963857
            ],
            [
              101.450304,
              0.5971666
            ],
            [
              101.4503127,
              0.5976903
            ],
            [
              101.4502833,
              0.5982993
            ],
            [
              101.4504267,
              0.6024691
            ],
            [
              101.4504602,
              0.6048089
            ],
            [
              101.4504616,
              0.6052808
            ],
            [
              101.450483,
              0.6064158
            ],
            [
              101.4505473,
              0.6085299
            ],
            [
              101.4505447,
              0.6089774
            ],
            [
              101.4506346,
              0.6203989
            ],
            [
              101.450616,
              0.6214508
            ],
            [
              101.4506141,
              0.6216988
            ],
            [
              101.4505484,
              0.6216984
            ],
            [
              101.4503755,
              0.6220092
            ],
            [
              101.4503315,
              0.6220698
            ],
            [
              101.4502701,
              0.6221304
            ],
            [
              101.4501947,
              0.622161
            ],
            [
              101.4501089,
              0.6221919
            ],
            [
              101.4500096,
              0.6222093
            ],
            [
              101.4498762,
              0.6222287
            ],
            [
              101.449754,
              0.6222435
            ],
            [
              101.4496234,
              0.6222495
            ],
            [
              101.4494685,
              0.6222292
            ],
            [
              101.4487012,
              0.6219997
            ],
            [
              101.4486361,
              0.6219802
            ],
            [
              101.4484365,
              0.6219196
            ],
            [
              101.44834,
              0.621873
            ],
            [
              101.4480382,
              0.6216917
            ],
            [
              101.4479522,
              0.6216484
            ],
            [
              101.4478813,
              0.6216246
            ],
            [
              101.447792,
              0.6216076
            ],
            [
              101.4475771,
              0.6216146
            ],
            [
              101.4471707,
              0.6217216
            ],
            [
              101.4469088,
              0.6217905
            ],
            [
              101.4468352,
              0.6218003
            ],
            [
              101.4467442,
              0.6217945
            ],
            [
              101.4466676,
              0.6217802
            ],
            [
              101.4465697,
              0.6217352
            ],
            [
              101.4464571,
              0.6216742
            ],
            [
              101.4463766,
              0.6215991
            ],
            [
              101.4463082,
              0.6215267
            ],
            [
              101.4462425,
              0.6214396
            ],
            [
              101.445777,
              0.6207096
            ],
            [
              101.4454633,
              0.620116
            ],
            [
              101.4450787,
              0.619376
            ],
            [
              101.4444733,
              0.6182911
            ],
            [
              101.4444199,
              0.618197
            ],
            [
              101.444314,
              0.6180481
            ],
            [
              101.4442,
              0.6179194
            ],
            [
              101.4440861,
              0.6178107
            ],
            [
              101.4439693,
              0.6177249
            ],
            [
              101.4438626,
              0.6176506
            ],
            [
              101.4436614,
              0.6175659
            ],
            [
              101.4434785,
              0.6174996
            ],
            [
              101.4429259,
              0.6173172
            ],
            [
              101.4426228,
              0.6172157
            ],
            [
              101.4425236,
              0.6171603
            ],
            [
              101.4424446,
              0.6171099
            ],
            [
              101.4423895,
              0.617037
            ],
            [
              101.4423305,
              0.6169364
            ],
            [
              101.4422943,
              0.6168318
            ],
            [
              101.4422822,
              0.6167509
            ],
            [
              101.4422567,
              0.6162712
            ],
            [
              101.4422514,
              0.6161814
            ],
            [
              101.4422393,
              0.6161023
            ],
            [
              101.4422084,
              0.616003
            ],
            [
              101.4421803,
              0.6159118
            ],
            [
              101.4421387,
              0.6158153
            ],
            [
              101.4420864,
              0.6156852
            ],
            [
              101.4420167,
              0.6155645
            ],
            [
              101.4419577,
              0.6154773
            ],
            [
              101.4418906,
              0.6154157
            ],
            [
              101.4415929,
              0.6151555
            ],
            [
              101.4415137,
              0.6150804
            ],
            [
              101.4414574,
              0.6150147
            ],
            [
              101.4413381,
              0.6148605
            ],
            [
              101.4412576,
              0.6147505
            ],
            [
              101.4411771,
              0.6146325
            ],
            [
              101.4411382,
              0.6145628
            ],
            [
              101.441094,
              0.6144676
            ],
            [
              101.4410564,
              0.6143415
            ],
            [
              101.4410403,
              0.6142624
            ],
            [
              101.4410336,
              0.6141915
            ],
            [
              101.4410208,
              0.6140033
            ],
            [
              101.441013,
              0.6135923
            ],
            [
              101.4410087,
              0.6133657
            ],
            [
              101.4410023,
              0.6132968
            ],
            [
              101.4409961,
              0.6132298
            ],
            [
              101.44098,
              0.6131185
            ],
            [
              101.4409558,
              0.6129951
            ],
            [
              101.440921,
              0.6128878
            ],
            [
              101.4408673,
              0.6127725
            ],
            [
              101.4408043,
              0.6126786
            ],
            [
              101.4407574,
              0.612621
            ],
            [
              101.4406943,
              0.6125526
            ],
            [
              101.4402384,
              0.612102
            ],
            [
              101.4401633,
              0.6120229
            ],
            [
              101.4400989,
              0.6119625
            ],
            [
              101.4400305,
              0.611878
            ],
            [
              101.4399607,
              0.6117707
            ],
            [
              101.4398521,
              0.6115495
            ],
            [
              101.4397851,
              0.611347
            ],
            [
              101.4396889,
              0.6110072
            ],
            [
              101.4396096,
              0.6106581
            ],
            [
              101.4395812,
              0.6105665
            ],
            [
              101.4395085,
              0.6104382
            ],
            [
              101.4392832,
              0.6100991
            ],
            [
              101.4391588,
              0.6099429
            ],
            [
              101.439046,
              0.6098075
            ],
            [
              101.438904,
              0.6096452
            ],
            [
              101.4387468,
              0.6095129
            ],
            [
              101.4385217,
              0.6093724
            ],
            [
              101.4378837,
              0.609097
            ],
            [
              101.4371157,
              0.6087491
            ],
            [
              101.4370197,
              0.6086985
            ],
            [
              101.4369191,
              0.6086421
            ],
            [
              101.4367772,
              0.6085595
            ],
            [
              101.4366389,
              0.608472
            ],
            [
              101.4365075,
              0.6083888
            ],
            [
              101.4363974,
              0.6083364
            ],
            [
              101.4361279,
              0.6082278
            ],
            [
              101.4359998,
              0.6081969
            ],
            [
              101.4358994,
              0.6081788
            ],
            [
              101.435298,
              0.608138
            ],
            [
              101.4351368,
              0.6081218
            ],
            [
              101.4349694,
              0.6080896
            ],
            [
              101.4348122,
              0.6080561
            ],
            [
              101.4346143,
              0.6079975
            ],
            [
              101.4340023,
              0.6076968
            ],
            [
              101.4339338,
              0.6076618
            ],
            [
              101.4336964,
              0.6075961
            ],
            [
              101.4334658,
              0.607517
            ],
            [
              101.4333424,
              0.6074674
            ],
            [
              101.4332378,
              0.6074137
            ],
            [
              101.4331493,
              0.6073588
            ],
            [
              101.4330862,
              0.6072984
            ],
            [
              101.4328314,
              0.6070651
            ],
            [
              101.4326316,
              0.6069216
            ],
            [
              101.4325726,
              0.6068626
            ],
            [
              101.4325163,
              0.6067929
            ],
            [
              101.4324827,
              0.6067406
            ],
            [
              101.4324599,
              0.6066829
            ],
            [
              101.4324412,
              0.606589
            ],
            [
              101.4324144,
              0.6064495
            ],
            [
              101.4322615,
              0.6063771
            ],
            [
              101.4320526,
              0.6062691
            ],
            [
              101.4319061,
              0.606121
            ],
            [
              101.4318283,
              0.6060258
            ],
            [
              101.4318269,
              0.6059131
            ],
            [
              101.4318029,
              0.6057442
            ],
            [
              101.4317572,
              0.6056154
            ],
            [
              101.4317143,
              0.6055256
            ],
            [
              101.4316526,
              0.6054197
            ],
            [
              101.4315078,
              0.6052601
            ],
            [
              101.4314139,
              0.6051782
            ],
            [
              101.4313066,
              0.6050951
            ],
            [
              101.4311859,
              0.6050308
            ],
            [
              101.431076,
              0.6049812
            ],
            [
              101.4309244,
              0.6049369
            ],
            [
              101.430805,
              0.60491
            ],
            [
              101.4306669,
              0.6048819
            ],
            [
              101.4304577,
              0.6048524
            ],
            [
              101.4301868,
              0.6048108
            ],
            [
              101.4299735,
              0.6047666
            ],
            [
              101.4297912,
              0.6047263
            ],
            [
              101.4296115,
              0.6046874
            ],
            [
              101.4293982,
              0.604611
            ],
            [
              101.4292172,
              0.604552
            ],
            [
              101.4289946,
              0.6044689
            ],
            [
              101.4288256,
              0.6043898
            ],
            [
              101.4286774,
              0.6043039
            ],
            [
              101.4285942,
              0.6042563
            ],
            [
              101.4281926,
              0.6040397
            ],
            [
              101.4280048,
              0.6039391
            ],
            [
              101.427856,
              0.6038708
            ],
            [
              101.4277165,
              0.6038077
            ],
            [
              101.4275663,
              0.6037367
            ],
            [
              101.4274081,
              0.6036683
            ],
            [
              101.4272726,
              0.6036294
            ],
            [
              101.4271345,
              0.6036106
            ],
            [
              101.4269964,
              0.6035918
            ],
            [
              101.4268635,
              0.6035824
            ],
            [
              101.4267549,
              0.6035786
            ],
            [
              101.4264277,
              0.6035757
            ],
            [
              101.4261755,
              0.603573
            ],
            [
              101.4259463,
              0.603573
            ],
            [
              101.4258001,
              0.6035677
            ],
            [
              101.4256988,
              0.6035697
            ],
            [
              101.4255734,
              0.6035543
            ],
            [
              101.4254829,
              0.6035389
            ],
            [
              101.4253722,
              0.6035074
            ],
            [
              101.4252582,
              0.6034718
            ],
            [
              101.4252495,
              0.6034689
            ],
            [
              101.424984,
              0.6033806
            ],
            [
              101.4244772,
              0.6032207
            ],
            [
              101.424368,
              0.6031358
            ],
            [
              101.4242388,
              0.6030459
            ],
            [
              101.423563,
              0.6026359
            ],
            [
              101.4234077,
              0.6025552
            ],
            [
              101.4227237,
              0.6022394
            ],
            [
              101.4223939,
              0.602097
            ],
            [
              101.4217713,
              0.6017948
            ],
            [
              101.4211544,
              0.6014877
            ],
            [
              101.4206126,
              0.6012209
            ],
            [
              101.4198415,
              0.60084
            ],
            [
              101.4192635,
              0.6005664
            ],
            [
              101.4186115,
              0.6002412
            ],
            [
              101.4179891,
              0.5999279
            ],
            [
              101.417587,
              0.5997254
            ],
            [
              101.4159664,
              0.5989448
            ],
            [
              101.4159047,
              0.5989172
            ],
            [
              101.4157481,
              0.5988474
            ],
            [
              101.415499,
              0.5987198
            ],
            [
              101.415216,
              0.5985764
            ],
            [
              101.4148553,
              0.5983953
            ],
            [
              101.4145106,
              0.5982263
            ],
            [
              101.4139916,
              0.5979863
            ],
            [
              101.4134806,
              0.5977355
            ],
            [
              101.4129383,
              0.5974747
            ],
            [
              101.4125325,
              0.5972809
            ],
            [
              101.411469,
              0.5967633
            ],
            [
              101.4106878,
              0.5963831
            ],
            [
              101.4088565,
              0.5954958
            ],
            [
              101.4069573,
              0.5945705
            ],
            [
              101.4068897,
              0.5945324
            ],
            [
              101.4057659,
              0.59399
            ],
            [
              101.4048793,
              0.5935186
            ],
            [
              101.4046696,
              0.5934187
            ],
            [
              101.4042887,
              0.5932297
            ],
            [
              101.403991,
              0.5931036
            ],
            [
              101.4031675,
              0.5927013
            ],
            [
              101.4030086,
              0.5926369
            ],
            [
              101.4026257,
              0.5924385
            ],
            [
              101.4024391,
              0.592354
            ],
            [
              101.4018817,
              0.5921215
            ],
            [
              101.4016871,
              0.5920156
            ],
            [
              101.4014912,
              0.5919128
            ],
            [
              101.4012323,
              0.5917948
            ],
            [
              101.4008637,
              0.5916251
            ],
            [
              101.4001904,
              0.5911965
            ],
            [
              101.3999274,
              0.5910263
            ],
            [
              101.3995828,
              0.5908131
            ],
            [
              101.3992409,
              0.5905424
            ],
            [
              101.3990728,
              0.5903894
            ],
            [
              101.3987189,
              0.5899275
            ],
            [
              101.3983262,
              0.5892387
            ],
            [
              101.3982725,
              0.5891489
            ],
            [
              101.3979852,
              0.5886189
            ],
            [
              101.3978041,
              0.5882847
            ],
            [
              101.397611,
              0.5878488
            ],
            [
              101.3975483,
              0.5875732
            ],
            [
              101.3974713,
              0.5870382
            ],
            [
              101.3974088,
              0.586613
            ],
            [
              101.3973954,
              0.5864186
            ],
            [
              101.397358,
              0.5861743
            ],
            [
              101.3972983,
              0.5854349
            ],
            [
              101.3972962,
              0.5852626
            ],
            [
              101.3972964,
              0.5851626
            ],
            [
              101.3972977,
              0.5845709
            ],
            [
              101.3973069,
              0.5840329
            ],
            [
              101.3973053,
              0.5835708
            ],
            [
              101.3973171,
              0.5833255
            ],
            [
              101.3970642,
              0.5833771
            ],
            [
              101.3968979,
              0.5834294
            ],
            [
              101.3961697,
              0.5836332
            ],
            [
              101.3959162,
              0.5837217
            ],
            [
              101.3957554,
              0.5838133
            ],
            [
              101.3957687,
              0.5838666
            ],
            [
              101.3957861,
              0.583935
            ],
            [
              101.3958169,
              0.5840543
            ],
            [
              101.3958505,
              0.5841951
            ],
            [
              101.3958719,
              0.5843245
            ],
            [
              101.3958739,
              0.5844117
            ],
            [
              101.3958558,
              0.5845102
            ],
            [
              101.3958237,
              0.5846135
            ],
            [
              101.3957378,
              0.5847664
            ],
            [
              101.395721,
              0.5847856
            ],
            [
              101.39567,
              0.5848505
            ],
            [
              101.3956331,
              0.5848977
            ],
            [
              101.3955715,
              0.5849877
            ],
            [
              101.3953523,
              0.5852589
            ],
            [
              101.3952886,
              0.5853377
            ],
            [
              101.3950565,
              0.5856327
            ],
            [
              101.3949229,
              0.5858077
            ],
            [
              101.3948446,
              0.5859103
            ],
            [
              101.3947691,
              0.5860057
            ],
            [
              101.3947374,
              0.5860457
            ],
            [
              101.3946421,
              0.5861812
            ],
            [
              101.3945389,
              0.586385
            ],
            [
              101.3944772,
              0.5865352
            ],
            [
              101.3944397,
              0.5866747
            ],
            [
              101.3944088,
              0.5867887
            ],
            [
              101.3943511,
              0.5868718
            ],
            [
              101.3942935,
              0.5869174
            ],
            [
              101.3941432,
              0.5869791
            ],
            [
              101.3937583,
              0.5871105
            ],
            [
              101.3934875,
              0.5871856
            ],
            [
              101.3932635,
              0.5872379
            ],
            [
              101.3931291,
              0.5872686
            ],
            [
              101.3930462,
              0.5872875
            ],
            [
              101.3927338,
              0.5873533
            ],
            [
              101.3923657,
              0.5874364
            ],
            [
              101.392255,
              0.5874699
            ],
            [
              101.3919935,
              0.5875356
            ],
            [
              101.3915191,
              0.5877018
            ],
            [
              101.3912545,
              0.5877945
            ],
            [
              101.3910885,
              0.5878443
            ],
            [
              101.3906336,
              0.5879822
            ],
            [
              101.390476,
              0.5880288
            ],
            [
              101.3902245,
              0.5881032
            ],
            [
              101.3901575,
              0.588123
            ],
            [
              101.3899147,
              0.5881994
            ],
            [
              101.389715,
              0.5882759
            ],
            [
              101.3893827,
              0.5883652
            ],
            [
              101.3891114,
              0.5884503
            ],
            [
              101.3887748,
              0.5885361
            ],
            [
              101.3885066,
              0.5885763
            ],
            [
              101.3884248,
              0.5885857
            ],
            [
              101.3883671,
              0.5885763
            ],
            [
              101.3882692,
              0.5885428
            ],
            [
              101.3881767,
              0.5884931
            ],
            [
              101.3880788,
              0.5883845
            ],
            [
              101.3877958,
              0.5880653
            ],
            [
              101.3875343,
              0.5877636
            ],
            [
              101.3872728,
              0.5874578
            ],
            [
              101.3871,
              0.5872646
            ],
            [
              101.3868315,
              0.5869644
            ],
            [
              101.3864118,
              0.5872862
            ],
            [
              101.386055,
              0.5875812
            ],
            [
              101.385709,
              0.587895
            ],
            [
              101.3854013,
              0.5881686
            ],
            [
              101.3853469,
              0.5882169
            ],
            [
              101.3852665,
              0.5882732
            ],
            [
              101.3852264,
              0.5883087
            ],
            [
              101.3850452,
              0.5881847
            ],
            [
              101.3846415,
              0.5879701
            ],
            [
              101.3843599,
              0.5878307
            ],
            [
              101.3841453,
              0.5877261
            ],
            [
              101.3841264,
              0.5877123
            ],
            [
              101.3840273,
              0.5876402
            ],
            [
              101.3839415,
              0.5875383
            ],
            [
              101.3837128,
              0.5872548
            ],
            [
              101.3836505,
              0.5871776
            ],
            [
              101.3832588,
              0.5867645
            ],
            [
              101.3829665,
              0.5869094
            ],
            [
              101.3824488,
              0.5872366
            ],
            [
              101.3821042,
              0.5874686
            ],
            [
              101.3819378,
              0.5872178
            ],
            [
              101.3818641,
              0.5870059
            ],
            [
              101.3817434,
              0.5866559
            ],
            [
              101.3815221,
              0.5860095
            ],
            [
              101.3814551,
              0.5858406
            ],
            [
              101.3813505,
              0.5855348
            ],
            [
              101.3813129,
              0.5853658
            ],
            [
              101.3812834,
              0.5852344
            ],
            [
              101.3812137,
              0.5849877
            ],
            [
              101.3811386,
              0.5847382
            ],
            [
              101.3810964,
              0.5845376
            ],
            [
              101.3809803,
              0.5839846
            ],
            [
              101.3808717,
              0.5835567
            ],
            [
              101.3807429,
              0.583011
            ],
            [
              101.3806753,
              0.5826704
            ],
            [
              101.3806269,
              0.5824592
            ],
            [
              101.3805062,
              0.58167
            ],
            [
              101.3804311,
              0.5811007
            ],
            [
              101.380407,
              0.580874
            ],
            [
              101.3803932,
              0.5806806
            ],
            [
              101.3803741,
              0.5805203
            ],
            [
              101.380309,
              0.5803323
            ],
            [
              101.3801958,
              0.5800084
            ],
            [
              101.3801327,
              0.5797268
            ],
            [
              101.3801019,
              0.5796705
            ],
            [
              101.3800563,
              0.5796383
            ],
            [
              101.3799758,
              0.5796369
            ],
            [
              101.3797626,
              0.579712
            ],
            [
              101.3790773,
              0.5799977
            ],
            [
              101.3788674,
              0.5800876
            ],
            [
              101.3788161,
              0.580111
            ],
            [
              101.3786555,
              0.5801673
            ],
            [
              101.3784993,
              0.5802243
            ],
            [
              101.3784128,
              0.5802397
            ],
            [
              101.3783179,
              0.5802414
            ],
            [
              101.3782495,
              0.5802324
            ],
            [
              101.3781992,
              0.5802146
            ],
            [
              101.3780574,
              0.5801351
            ],
            [
              101.3777791,
              0.5798696
            ],
            [
              101.3775444,
              0.579651
            ],
            [
              101.37742,
              0.5796742
            ],
            [
              101.3773603,
              0.5796802
            ],
            [
              101.3769557,
              0.5796879
            ],
            [
              101.3763106,
              0.5797241
            ],
            [
              101.3759418,
              0.5797442
            ],
            [
              101.3752457,
              0.5797804
            ],
            [
              101.3747066,
              0.5798207
            ],
            [
              101.374087,
              0.5798321
            ],
            [
              101.3739509,
              0.5798267
            ],
            [
              101.3738765,
              0.579815
            ],
            [
              101.3734929,
              0.5796758
            ],
            [
              101.3728572,
              0.579411
            ],
            [
              101.3724214,
              0.5792387
            ],
            [
              101.3718631,
              0.579005
            ],
            [
              101.3718531,
              0.5790072
            ],
            [
              101.3718442,
              0.579012
            ],
            [
              101.3718377,
              0.5790191
            ],
            [
              101.3711309,
              0.5812431
            ],
            [
              101.3709174,
              0.5818468
            ],
            [
              101.3707868,
              0.5822485
            ],
            [
              101.3705127,
              0.5830198
            ],
            [
              101.3704202,
              0.5833108
            ]
          ]
        ]
      },
      "id": "relation/18493626"
    },
    {
      "type": "Feature",
      "properties": {
        "@id": "node/1308474484",
        "@relations": [
          {
            "role": "label",
            "rel": 18493626,
            "reltags": {
              "admin_level": "6",
              "border_type": "district",
              "boundary": "administrative",
              "name": "Rumbai",
              "name:en": "Rumbai District",
              "name:id": "Rumbai",
              "name:ms": "Kecamatan Rumbai",
              "name:ms-Arab": "کچامتن رومبي",
              "name:nl": "District Rumbai",
              "official_name": "Kecamatan Rumbai",
              "old_name": "Rumbai Pesisir",
              "ref": "14.71.12",
              "short_name": "Rumbai",
              "source": "Peraturan Daerah Kota Pekanbaru 2/2020 Tentang Penataan Kecamatan",
              "type": "boundary",
              "wikidata": "Q6542874"
            }
          }
        ]
      },
      "geometry": {
        "type": "Point",
        "coordinates": [
          101.4317921,
          0.5542243
        ]
      },
      "id": "node/1308474484"
    },
    {
      "type": "Feature",
      "properties": {
        "@id": "node/3181633178",
        "@relations": [
          {
            "role": "admin_centre",
            "rel": 18493626,
            "reltags": {
              "admin_level": "6",
              "border_type": "district",
              "boundary": "administrative",
              "name": "Rumbai",
              "name:en": "Rumbai District",
              "name:id": "Rumbai",
              "name:ms": "Kecamatan Rumbai",
              "name:ms-Arab": "کچامتن رومبي",
              "name:nl": "District Rumbai",
              "official_name": "Kecamatan Rumbai",
              "old_name": "Rumbai Pesisir",
              "ref": "14.71.12",
              "short_name": "Rumbai",
              "source": "Peraturan Daerah Kota Pekanbaru 2/2020 Tentang Penataan Kecamatan",
              "type": "boundary",
              "wikidata": "Q6542874"
            }
          }
        ]
      },
      "geometry": {
        "type": "Point",
        "coordinates": [
          101.4406336,
          0.5606715
        ]
      },
      "id": "node/3181633178"
    }
  ]
}